start=new Date('2022-06-03T00:00:00.000Z').valueOf();
sats=[{"ECCENTRICITY":"0.00015930","MEAN_ANOMALY":"297.8788","EPOCH":"2022-06-02T03:53:07.916352","CENTER_NAME":"EARTH","NORAD_CAT_ID":"48355","TLE_LINE2":"2 48355  53.0559  61.0945 0001593  62.2362 297.8788 15.06385032 59554","REF_FRAME":"TEME","OBJECT_ID":"2021-038C","RA_OF_ASC_NODE":"61.0945","OBJECT_NAME":"STARLINK-2635","LAUNCH_DATE":"2021-05-04","SEMIMAJOR_AXIS":"6925.394","RCS_SIZE":"LARGE","CLASSIFICATION_TYPE":"U","APOAPSIS":"548.363","PERIAPSIS":"546.156","TIME_SYSTEM":"UTC","MEAN_ELEMENT_THEORY":"SGP4","ARG_OF_PERICENTER":"62.2362","MEAN_MOTION_DDOT":"0.0000000000000","DECAY_DATE":null,"OBJECT_TYPE":"PAYLOAD","EPHEMERIS_TYPE":"0","SITE":"AFETR","FILE":"3477482","ELEMENT_SET_NO":"999","REV_AT_EPOCH":"5955","MEAN_MOTION":"15.06385032","GP_ID":"205176798","BSTAR":"0.00006342300000","MEAN_MOTION_DOT":"0.00000663","PERIOD":"95.593","COUNTRY_CODE":"US","INCLINATION":"53.0559","TLE_LINE1":"1 48355U 21038C   22153.16189718  .00000663  00000-0  63423-4 0  9990"},{"DECAY_DATE":null,"OBJECT_TYPE":"PAYLOAD","MEAN_MOTION_DDOT":"0.0000000000000","ARG_OF_PERICENTER":"56.7754","MEAN_ELEMENT_THEORY":"SGP4","TIME_SYSTEM":"UTC","PERIAPSIS":"545.974","CLASSIFICATION_TYPE":"U","LAUNCH_DATE":"2021-05-04","RCS_SIZE":"LARGE","SEMIMAJOR_AXIS":"6925.347","APOAPSIS":"548.450","REF_FRAME":"TEME","OBJECT_ID":"2021-038D","RA_OF_ASC_NODE":"61.1105","OBJECT_NAME":"STARLINK-2637","NORAD_CAT_ID":"48356","TLE_LINE2":"2 48356  53.0555  61.1105 0001788  56.7754 303.3406 15.06400581 59556","CENTER_NAME":"EARTH","EPOCH":"2022-06-02T03:47:48.851520","MEAN_ANOMALY":"303.3406","ECCENTRICITY":"0.00017880","INCLINATION":"53.0555","TLE_LINE1":"1 48356U 21038D   22153.15820430  .00000568  00000-0  57019-4 0  9991","MEAN_MOTION_DOT":"0.00000568","COUNTRY_CODE":"US","PERIOD":"95.592","MEAN_MOTION":"15.06400581","BSTAR":"0.00005701900000","GP_ID":"205177047","REV_AT_EPOCH":"5955","ELEMENT_SET_NO":"999","EPHEMERIS_TYPE":"0","SITE":"AFETR","FILE":"3477482"},{"REV_AT_EPOCH":"5953","EPHEMERIS_TYPE":"0","SITE":"AFETR","FILE":"3477482","ELEMENT_SET_NO":"999","MEAN_MOTION_DOT":"0.00002466","PERIOD":"95.592","COUNTRY_CODE":"US","INCLINATION":"53.0576","TLE_LINE1":"1 48357U 21038E   22153.02457165  .00002466  00000-0  18440-3 0  9992","MEAN_MOTION":"15.06402957","GP_ID":"205175797","BSTAR":"0.00018440000000","TLE_LINE2":"2 48357  53.0576  61.7437 0001910  62.6820 297.4363 15.06402957 59533","NORAD_CAT_ID":"48357","OBJECT_ID":"2021-038E","REF_FRAME":"TEME","RA_OF_ASC_NODE":"61.7437","OBJECT_NAME":"STARLINK-2636","MEAN_ANOMALY":"297.4363","ECCENTRICITY":"0.00019100","EPOCH":"2022-06-02T00:35:22.990560","CENTER_NAME":"EARTH","TIME_SYSTEM":"UTC","ARG_OF_PERICENTER":"62.6820","MEAN_ELEMENT_THEORY":"SGP4","DECAY_DATE":null,"MEAN_MOTION_DDOT":"0.0000000000000","OBJECT_TYPE":"PAYLOAD","SEMIMAJOR_AXIS":"6925.339","LAUNCH_DATE":"2021-05-04","RCS_SIZE":"LARGE","CLASSIFICATION_TYPE":"U","APOAPSIS":"548.527","PERIAPSIS":"545.882"},{"REV_AT_EPOCH":"5954","EPHEMERIS_TYPE":"0","SITE":"AFETR","FILE":"3477482","ELEMENT_SET_NO":"999","MEAN_MOTION_DOT":"0.00000199","PERIOD":"95.592","COUNTRY_CODE":"US","INCLINATION":"53.0571","TLE_LINE1":"1 48358U 21038F   22153.15083123  .00000199  00000-0  32242-4 0  9994","MEAN_MOTION":"15.06403166","GP_ID":"205176047","BSTAR":"0.00003224200000","NORAD_CAT_ID":"48358","TLE_LINE2":"2 48358  53.0571  61.1336 0002078  44.3325 315.7830 15.06403166 59541","OBJECT_ID":"2021-038F","REF_FRAME":"TEME","OBJECT_NAME":"STARLINK-2624","RA_OF_ASC_NODE":"61.1336","MEAN_ANOMALY":"315.7830","ECCENTRICITY":"0.00020780","EPOCH":"2022-06-02T03:37:11.818272","CENTER_NAME":"EARTH","TIME_SYSTEM":"UTC","ARG_OF_PERICENTER":"44.3325","MEAN_ELEMENT_THEORY":"SGP4","DECAY_DATE":null,"OBJECT_TYPE":"PAYLOAD","MEAN_MOTION_DDOT":"0.0000000000000","LAUNCH_DATE":"2021-05-04","RCS_SIZE":"LARGE","CLASSIFICATION_TYPE":"U","SEMIMAJOR_AXIS":"6925.339","APOAPSIS":"548.643","PERIAPSIS":"545.765"},{"MEAN_MOTION":"15.06396790","GP_ID":"205211630","BSTAR":"0.00004731500000","INCLINATION":"53.0551","TLE_LINE1":"1 48359U 21038G   22153.81062498  .00000423  00000-0  47315-4 0  9997","MEAN_MOTION_DOT":"0.00000423","COUNTRY_CODE":"US","PERIOD":"95.592","ELEMENT_SET_NO":"999","EPHEMERIS_TYPE":"0","SITE":"AFETR","FILE":"3477983","REV_AT_EPOCH":"5964","PERIAPSIS":"545.922","SEMIMAJOR_AXIS":"6925.358","LAUNCH_DATE":"2021-05-04","RCS_SIZE":"LARGE","CLASSIFICATION_TYPE":"U","APOAPSIS":"548.525","DECAY_DATE":null,"OBJECT_TYPE":"PAYLOAD","MEAN_MOTION_DDOT":"0.0000000000000","MEAN_ELEMENT_THEORY":"SGP4","ARG_OF_PERICENTER":"52.3928","TIME_SYSTEM":"UTC","CENTER_NAME":"EARTH","EPOCH":"2022-06-02T19:27:17.998272","ECCENTRICITY":"0.00018790","MEAN_ANOMALY":"307.7232","OBJECT_ID":"2021-038G","REF_FRAME":"TEME","OBJECT_NAME":"STARLINK-2628","RA_OF_ASC_NODE":"58.1863","NORAD_CAT_ID":"48359","TLE_LINE2":"2 48359  53.0551  58.1863 0001879  52.3928 307.7232 15.06396790 59649"},{"REF_FRAME":"TEME","OBJECT_ID":"2021-038H","OBJECT_NAME":"STARLINK-2622","RA_OF_ASC_NODE":"58.5108","NORAD_CAT_ID":"48360","TLE_LINE2":"2 48360  53.0552  58.5108 0001658  55.8518 304.2629 15.06405939 59633","CENTER_NAME":"EARTH","EPOCH":"2022-06-02T17:46:26.802336","ECCENTRICITY":"0.00016580","MEAN_ANOMALY":"304.2629","DECAY_DATE":null,"MEAN_MOTION_DDOT":"0.0000000000000","OBJECT_TYPE":"PAYLOAD","MEAN_ELEMENT_THEORY":"SGP4","ARG_OF_PERICENTER":"55.8518","TIME_SYSTEM":"UTC","PERIAPSIS":"546.047","LAUNCH_DATE":"2021-05-04","SEMIMAJOR_AXIS":"6925.330","RCS_SIZE":"LARGE","CLASSIFICATION_TYPE":"U","APOAPSIS":"548.344","REV_AT_EPOCH":"5963","ELEMENT_SET_NO":"999","EPHEMERIS_TYPE":"0","SITE":"AFETR","FILE":"3477983","INCLINATION":"53.0552","TLE_LINE1":"1 48360U 21038H   22153.74058799  .00001440  00000-0  11555-3 0  9996","MEAN_MOTION_DOT":"0.00001440","COUNTRY_CODE":"US","PERIOD":"95.592","MEAN_MOTION":"15.06405939","GP_ID":"205211879","BSTAR":"0.00011555000000"},{"FILE":"3477983","EPHEMERIS_TYPE":"0","SITE":"AFETR","ELEMENT_SET_NO":"999","REV_AT_EPOCH":"5963","GP_ID":"205211129","BSTAR":"0.00008681900000","MEAN_MOTION":"15.06402292","COUNTRY_CODE":"US","PERIOD":"95.592","MEAN_MOTION_DOT":"0.00001012","TLE_LINE1":"1 48361U 21038J   22153.73689808  .00001012  00000-0  86819-4 0  9998","INCLINATION":"53.0576","ECCENTRICITY":"0.00018190","MEAN_ANOMALY":"292.9261","CENTER_NAME":"EARTH","EPOCH":"2022-06-02T17:41:07.994112","NORAD_CAT_ID":"48361","TLE_LINE2":"2 48361  53.0576  58.5011 0001819  67.1920 292.9261 15.06402292 59639","OBJECT_NAME":"STARLINK-2591","RA_OF_ASC_NODE":"58.5011","REF_FRAME":"TEME","OBJECT_ID":"2021-038J","APOAPSIS":"548.466","LAUNCH_DATE":"2021-05-04","SEMIMAJOR_AXIS":"6925.342","RCS_SIZE":"LARGE","CLASSIFICATION_TYPE":"U","PERIAPSIS":"545.947","TIME_SYSTEM":"UTC","DECAY_DATE":null,"OBJECT_TYPE":"PAYLOAD","MEAN_MOTION_DDOT":"0.0000000000000","ARG_OF_PERICENTER":"67.1920","MEAN_ELEMENT_THEORY":"SGP4"},{"REV_AT_EPOCH":"5959","ELEMENT_SET_NO":"999","FILE":"3477482","EPHEMERIS_TYPE":"0","SITE":"AFETR","TLE_LINE1":"1 48362U 21038K   22153.43002606  .00000067  00000-0  23423-4 0  9992","INCLINATION":"53.0553","COUNTRY_CODE":"US","PERIOD":"95.592","MEAN_MOTION_DOT":"0.00000067","BSTAR":"0.00002342300000","GP_ID":"205175548","MEAN_MOTION":"15.06397350","OBJECT_NAME":"STARLINK-2578","RA_OF_ASC_NODE":"59.9033","OBJECT_ID":"2021-038K","REF_FRAME":"TEME","NORAD_CAT_ID":"48362","TLE_LINE2":"2 48362  53.0553  59.9033 0001939  51.2147 308.9015 15.06397350 59590","CENTER_NAME":"EARTH","EPOCH":"2022-06-02T10:19:14.251584","ECCENTRICITY":"0.00019390","MEAN_ANOMALY":"308.9015","OBJECT_TYPE":"PAYLOAD","DECAY_DATE":null,"MEAN_MOTION_DDOT":"0.0000000000000","MEAN_ELEMENT_THEORY":"SGP4","ARG_OF_PERICENTER":"51.2147","TIME_SYSTEM":"UTC","PERIAPSIS":"545.879","APOAPSIS":"548.565","LAUNCH_DATE":"2021-05-04","RCS_SIZE":"LARGE","SEMIMAJOR_AXIS":"6925.357","CLASSIFICATION_TYPE":"U"},{"COUNTRY_CODE":"US","PERIOD":"95.592","MEAN_MOTION_DOT":"0.00001039","TLE_LINE1":"1 48363U 21038L   22153.44801071  .00001039  00000-0  88623-4 0  9990","INCLINATION":"53.0566","BSTAR":"0.00008862300000","GP_ID":"205176799","MEAN_MOTION":"15.06403200","REV_AT_EPOCH":"5966","FILE":"3477482","SITE":"AFETR","EPHEMERIS_TYPE":"0","ELEMENT_SET_NO":"999","TIME_SYSTEM":"UTC","OBJECT_TYPE":"PAYLOAD","DECAY_DATE":null,"MEAN_MOTION_DDOT":"0.0000000000000","MEAN_ELEMENT_THEORY":"SGP4","ARG_OF_PERICENTER":"74.3602","APOAPSIS":"548.200","RCS_SIZE":"LARGE","LAUNCH_DATE":"2021-05-04","SEMIMAJOR_AXIS":"6925.339","CLASSIFICATION_TYPE":"U","PERIAPSIS":"546.207","TLE_LINE2":"2 48363  53.0566  54.8097 0001439  74.3602 285.7546 15.06403200 59667","NORAD_CAT_ID":"48363","OBJECT_NAME":"STARLINK-2626","RA_OF_ASC_NODE":"54.8097","REF_FRAME":"TEME","OBJECT_ID":"2021-038L","ECCENTRICITY":"0.00014390","MEAN_ANOMALY":"285.7546","CENTER_NAME":"EARTH","EPOCH":"2022-06-02T10:45:08.125344"},{"ELEMENT_SET_NO":"999","SITE":"AFETR","EPHEMERIS_TYPE":"0","FILE":"3477482","REV_AT_EPOCH":"5966","MEAN_MOTION":"15.03958982","BSTAR":"0.00006135600000","GP_ID":"205177048","INCLINATION":"53.0559","TLE_LINE1":"1 48364U 21038M   22153.46022148  .00000581  00000-0  61356-4 0  9998","MEAN_MOTION_DOT":"0.00000581","PERIOD":"95.747","COUNTRY_CODE":"US","EPOCH":"2022-06-02T11:02:43.135872","CENTER_NAME":"EARTH","ECCENTRICITY":"0.00017920","MEAN_ANOMALY":"291.9925","REF_FRAME":"TEME","OBJECT_ID":"2021-038M","OBJECT_NAME":"STARLINK-2611","RA_OF_ASC_NODE":"54.9313","NORAD_CAT_ID":"48364","TLE_LINE2":"2 48364  53.0559  54.9313 0001792  68.1253 291.9925 15.03958982 59666","PERIAPSIS":"553.463","LAUNCH_DATE":"2021-05-04","SEMIMAJOR_AXIS":"6932.840","RCS_SIZE":"LARGE","CLASSIFICATION_TYPE":"U","APOAPSIS":"555.947","ARG_OF_PERICENTER":"68.1253","MEAN_ELEMENT_THEORY":"SGP4","DECAY_DATE":null,"OBJECT_TYPE":"PAYLOAD","MEAN_MOTION_DDOT":"0.0000000000000","TIME_SYSTEM":"UTC"}];
